{
  "type": "FeatureCollection",
  "features": [
    {
      "type": "Feature",
      "properties": {
        "norad_id": 35195,
        "name": "FENGYUN 1C DEB",
        "group": "fengyun-1c-debris",
        "lat": -76.34812539961443,
        "lon": 128.9300069236372,
        "alt_km": 757.60527815363,
        "timestamp": "2025-12-19T10:50:01.488426+00:00",
        "meta_object_name": "FENGYUN 1C DEB",
        "meta_object_id": "1999-025DPB",
        "meta_epoch": "2025-12-16T12:16:55.174944",
        "meta_mean_motion": 14.56047564,
        "meta_eccentricity": 0.0103291,
        "meta_inclination": 98.9835,
        "meta_ra_of_asc_node": 85.1262,
        "meta_arg_of_pericenter": 57.0523,
        "meta_mean_anomaly": 304.0554,
        "meta_ephemeris_type": 0,
        "meta_classification_type": "U",
        "meta_norad_cat_id": 35195,
        "meta_element_set_no": 999,
        "meta_rev_at_epoch": 90981,
        "meta_bstar": 0.00048967713,
        "meta_mean_motion_dot": 2.261e-05,
        "meta_mean_motion_ddot": 0,
        "tle_line1": "1 35195U 99025DPB 25350.51174971  .00002261  00000+0  48968-3 0  9996",
        "tle_line2": "2 35195  98.9835  85.1262 0103291  57.0523 304.0554 14.56047564909819"
      },
      "geometry": {
        "type": "Point",
        "coordinates": [
          128.9300069236372,
          -76.34812539961443
        ]
      }
    },
    {
      "type": "Feature",
      "properties": {
        "norad_id": 35196,
        "name": "FENGYUN 1C DEB",
        "group": "fengyun-1c-debris",
        "lat": -67.54112890571784,
        "lon": 167.08537859430453,
        "alt_km": 776.9539531122464,
        "timestamp": "2025-12-19T10:50:01.488437+00:00",
        "meta_object_name": "FENGYUN 1C DEB",
        "meta_object_id": "1999-025DPC",
        "meta_epoch": "2025-12-17T23:57:25.407936",
        "meta_mean_motion": 14.19808668,
        "meta_eccentricity": 0.02141818,
        "meta_inclination": 98.5355,
        "meta_ra_of_asc_node": 6.9862,
        "meta_arg_of_pericenter": 323.0783,
        "meta_mean_anomaly": 64.7784,
        "meta_ephemeris_type": 0,
        "meta_classification_type": "U",
        "meta_norad_cat_id": 35196,
        "meta_element_set_no": 999,
        "meta_rev_at_epoch": 89209,
        "meta_bstar": 0.00066332138,
        "meta_mean_motion_dot": 1.722e-05,
        "meta_mean_motion_ddot": 0,
        "tle_line1": "1 35196U 99025DPC 25351.99821074  .00001722  00000+0  66332-3 0  9999",
        "tle_line2": "2 35196  98.5355   6.9862 0214181 323.0783  64.7784 14.19808668892090"
      },
      "geometry": {
        "type": "Point",
        "coordinates": [
          167.08537859430453,
          -67.54112890571784
        ]
      }
    },
    {
      "type": "Feature",
      "properties": {
        "norad_id": 35200,
        "name": "FENGYUN 1C DEB",
        "group": "fengyun-1c-debris",
        "lat": -75.29725140054421,
        "lon": 113.53684556583576,
        "alt_km": 1323.0435863784842,
        "timestamp": "2025-12-19T10:50:01.488447+00:00",
        "meta_object_name": "FENGYUN 1C DEB",
        "meta_object_id": "1999-025DPG",
        "meta_epoch": "2025-12-18T21:10:05.111040",
        "meta_mean_motion": 13.41964519,
        "meta_eccentricity": 0.03531821,
        "meta_inclination": 98.8705,
        "meta_ra_of_asc_node": 329.5576,
        "meta_arg_of_pericenter": 44.816,
        "meta_mean_anomaly": 346.3618,
        "meta_ephemeris_type": 0,
        "meta_classification_type": "U",
        "meta_norad_cat_id": 35200,
        "meta_element_set_no": 999,
        "meta_rev_at_epoch": 65986,
        "meta_bstar": 0.00039767184,
        "meta_mean_motion_dot": 2.87e-06,
        "meta_mean_motion_ddot": 0,
        "tle_line1": "1 35200U 99025DPG 25352.88200360  .00000287  00000+0  39767-3 0  9990",
        "tle_line2": "2 35200  98.8705 329.5576 0353182  44.8160 346.3618 13.41964519659869"
      },
      "geometry": {
        "type": "Point",
        "coordinates": [
          113.53684556583576,
          -75.29725140054421
        ]
      }
    },
    {
      "type": "Feature",
      "properties": {
        "norad_id": 35201,
        "name": "FENGYUN 1C DEB",
        "group": "fengyun-1c-debris",
        "lat": 57.652072464074735,
        "lon": -11.720802020361338,
        "alt_km": 854.3755402706674,
        "timestamp": "2025-12-19T10:50:01.488457+00:00",
        "meta_object_name": "FENGYUN 1C DEB",
        "meta_object_id": "1999-025DPH",
        "meta_epoch": "2025-12-16T06:15:58.279680",
        "meta_mean_motion": 14.11053965,
        "meta_eccentricity": 0.00059011,
        "meta_inclination": 98.7078,
        "meta_ra_of_asc_node": 359.1899,
        "meta_arg_of_pericenter": 237.5244,
        "meta_mean_anomaly": 184.1704,
        "meta_ephemeris_type": 0,
        "meta_classification_type": "U",
        "meta_norad_cat_id": 35201,
        "meta_element_set_no": 999,
        "meta_rev_at_epoch": 87069,
        "meta_bstar": 0.00013891747,
        "meta_mean_motion_dot": 2.07e-06,
        "meta_mean_motion_ddot": 0,
        "tle_line1": "1 35201U 99025DPH 25350.26109120  .00000207  00000+0  13892-3 0  9996",
        "tle_line2": "2 35201  98.7078 359.1899 0005901 237.5244 184.1704 14.11053965870698"
      },
      "geometry": {
        "type": "Point",
        "coordinates": [
          -11.720802020361338,
          57.652072464074735
        ]
      }
    },
    {
      "type": "Feature",
      "properties": {
        "norad_id": 35202,
        "name": "FENGYUN 1C DEB",
        "group": "fengyun-1c-debris",
        "lat": -40.752879902815884,
        "lon": 47.22606509196405,
        "alt_km": 898.3397790692397,
        "timestamp": "2025-12-19T10:50:01.488467+00:00",
        "meta_object_name": "FENGYUN 1C DEB",
        "meta_object_id": "1999-025DPJ",
        "meta_epoch": "2025-12-16T02:04:31.277568",
        "meta_mean_motion": 13.34745262,
        "meta_eccentricity": 0.03737817,
        "meta_inclination": 100.0908,
        "meta_ra_of_asc_node": 35.0737,
        "meta_arg_of_pericenter": 0.1614,
        "meta_mean_anomaly": 359.9571,
        "meta_ephemeris_type": 0,
        "meta_classification_type": "U",
        "meta_norad_cat_id": 35202,
        "meta_element_set_no": 999,
        "meta_rev_at_epoch": 57021,
        "meta_bstar": 0.00048107163,
        "meta_mean_motion_dot": 3.14e-06,
        "meta_mean_motion_ddot": 0,
        "tle_line1": "1 35202U 99025DPJ 25350.08647312  .00000314  00000+0  48107-3 0  9993",
        "tle_line2": "2 35202 100.0908  35.0737 0373781   0.1614 359.9571 13.34745262570219"
      },
      "geometry": {
        "type": "Point",
        "coordinates": [
          47.22606509196405,
          -40.752879902815884
        ]
      }
    },
    {
      "type": "Feature",
      "properties": {
        "norad_id": 35203,
        "name": "FENGYUN 1C DEB",
        "group": "fengyun-1c-debris",
        "lat": -30.633867488001922,
        "lon": 134.27257213278713,
        "alt_km": 997.7844266242446,
        "timestamp": "2025-12-19T10:50:01.488478+00:00",
        "meta_object_name": "FENGYUN 1C DEB",
        "meta_object_id": "1999-025DPK",
        "meta_epoch": "2025-12-18T04:51:07.976160",
        "meta_mean_motion": 13.26442898,
        "meta_eccentricity": 0.05113843,
        "meta_inclination": 102.0718,
        "meta_ra_of_asc_node": 320.0969,
        "meta_arg_of_pericenter": 147.2129,
        "meta_mean_anomaly": 216.1835,
        "meta_ephemeris_type": 0,
        "meta_classification_type": "U",
        "meta_norad_cat_id": 35203,
        "meta_element_set_no": 999,
        "meta_rev_at_epoch": 59723,
        "meta_bstar": 0.0016099013,
        "meta_mean_motion_dot": 1.395e-05,
        "meta_mean_motion_ddot": 0,
        "tle_line1": "1 35203U 99025DPK 25352.20217565  .00001395  00000+0  16099-2 0  9997",
        "tle_line2": "2 35203 102.0718 320.0969 0511384 147.2129 216.1835 13.26442898597230"
      },
      "geometry": {
        "type": "Point",
        "coordinates": [
          134.27257213278713,
          -30.633867488001922
        ]
      }
    },
    {
      "type": "Feature",
      "properties": {
        "norad_id": 35204,
        "name": "FENGYUN 1C DEB",
        "group": "fengyun-1c-debris",
        "lat": 19.7629656042406,
        "lon": 5.705176671163125,
        "alt_km": 751.9389937986152,
        "timestamp": "2025-12-19T10:50:01.488507+00:00",
        "meta_object_name": "FENGYUN 1C DEB",
        "meta_object_id": "1999-025DPL",
        "meta_epoch": "2025-12-15T11:45:27.892224",
        "meta_mean_motion": 14.48830381,
        "meta_eccentricity": 0.00393907,
        "meta_inclination": 99.0087,
        "meta_ra_of_asc_node": 178.2129,
        "meta_arg_of_pericenter": 315.5086,
        "meta_mean_anomaly": 73.8266,
        "meta_ephemeris_type": 0,
        "meta_classification_type": "U",
        "meta_norad_cat_id": 35204,
        "meta_element_set_no": 999,
        "meta_rev_at_epoch": 90970,
        "meta_bstar": 0.001421671,
        "meta_mean_motion_dot": 5.377e-05,
        "meta_mean_motion_ddot": 0,
        "tle_line1": "1 35204U 99025DPL 25349.48990616  .00005377  00000+0  14217-2 0  9993",
        "tle_line2": "2 35204  99.0087 178.2129 0039390 315.5086  73.8266 14.48830381909708"
      },
      "geometry": {
        "type": "Point",
        "coordinates": [
          5.705176671163125,
          19.7629656042406
        ]
      }
    }
  ]
}